{
  "orders": [
    {
      "id": "70a0",
      "name": "Him",
      "address": "adf",
      "state": "adsf",
      "city": "adsf",
      "pincode": "32",
      "number": "213",
      "payment": "cash"
    },
    {
      "id": "2d28",
      "name": "Him",
      "address": "adf",
      "state": "adsf",
      "city": "adsf",
      "pincode": "32",
      "number": "213",
      "payment": "cash"
    },
    {
      "id": "6b0d",
      "name": "Him",
      "address": "adf",
      "state": "adsf",
      "city": "adsf",
      "pincode": "32",
      "number": "342",
      "payment": "cash"
    },
    {
      "id": "1b5a",
      "name": "Him",
      "address": "adf",
      "state": "adsf",
      "city": "adsf",
      "pincode": "32",
      "number": "213",
      "payment": "net"
    },
    {
      "id": "5dd3",
      "name": "Him",
      "address": "adf",
      "state": "adsf",
      "city": "adsf",
      "pincode": "32",
      "number": "213",
      "payment": "upi"
    },
    {
      "id": "9b4a",
      "name": "Him",
      "address": "adf",
      "state": "adsf",
      "city": "adsf",
      "pincode": "32",
      "number": "213",
      "payment": "upi"
    },
    {
      "id": "93a2",
      "name": "Him",
      "address": "adf",
      "state": "adsf",
      "city": "adsf",
      "pincode": "32",
      "number": "213",
      "payment": "cash"
    },
    {
      "id": "e8bb",
      "name": "Him",
      "address": "adf",
      "state": "adsf",
      "city": "adsf",
      "pincode": "32",
      "number": "213",
      "payment": "cash"
    },
    {
      "id": "eaaf",
      "name": "Him",
      "address": "adf",
      "state": "adsf",
      "city": "adsf",
      "pincode": "32",
      "number": "213",
      "payment": "upi"
    },
    {
      "id": "5840",
      "name": "Him",
      "address": "adf",
      "state": "adsf",
      "city": "adsf",
      "pincode": "32",
      "number": "342",
      "payment": "cash"
    },
    {
      "id": "416a",
      "name": "Him",
      "address": "adf",
      "state": "adsf",
      "city": "adsf",
      "pincode": "32",
      "number": "213",
      "payment": "upi"
    },
    {
      "id": "5e26",
      "name": "Him",
      "address": "adf",
      "state": "adsf",
      "city": "adsf",
      "pincode": "32",
      "number": "213",
      "payment": "atm",
      "productName": "",
      "productPrice": "",
      "productImage": ""
    },
    {
      "id": "3401",
      "name": "okHImadf",
      "address": "adf",
      "state": "adsf",
      "city": "adsf",
      "pincode": "32",
      "number": "342",
      "payment": "atm",
      "productName": "",
      "productPrice": "",
      "productImage": ""
    },
    {
      "id": "edb2",
      "name": "Him",
      "address": "adf",
      "state": "adsf",
      "city": "adsf",
      "pincode": "32",
      "number": "324"
    },
    {
      "id": "73e4",
      "name": "Him",
      "address": "adf",
      "state": "adsf",
      "city": "adsf",
      "pincode": "33",
      "number": "213321",
      "payment": "atm"
    },
    {
      "id": "766e"
    },
    {
      "id": "ddaa",
      "name": "Him",
      "address": "adf",
      "state": "adsf",
      "city": "adsfdsf",
      "pincode": "33",
      "number": "423",
      "payment": "atm"
    },
    {
      "id": "9b9c",
      "name": "Him",
      "address": "adf",
      "state": "adsf",
      "city": "adsf",
      "pincode": "32",
      "number": "213",
      "payment": "net"
    },
    {
      "id": "3641",
      "name": "Him",
      "address": "adf",
      "state": "adsf",
      "city": "adsf",
      "pincode": "32",
      "number": "213",
      "payment": "cash"
    },
    {
      "id": "2afc",
      "name": "newmyname",
      "address": "adf",
      "state": "adsf",
      "city": "adsf",
      "pincode": "32",
      "number": "342",
      "payment": "net"
    },
    {
      "id": "3af3",
      "name": "Himwow",
      "address": "adf",
      "state": "adsf",
      "city": "adsf",
      "pincode": "33",
      "number": "213",
      "payment": "upi"
    },
    {
      "id": "4d05",
      "name": "Himwow",
      "address": "adf",
      "state": "adsf",
      "city": "adsf",
      "pincode": "33",
      "number": "213321",
      "payment": "cash"
    }
  ]
}